{
  "type": "FeatureCollection",
  "name": "synthetic_demand_sites",
  "crs": {
    "type": "name",
    "properties": {"name": "urn:ogc:def:crs:OGC:1.3:CRS84"}
  },
  "features": [
    {
      "type": "Feature",
      "id": "SITE-001",
      "properties": {"site_id": "SITE-001", "requested_capacity_gbps": 10},
      "geometry": {"type": "Point", "coordinates": [-3.5990, 37.1775]}
    },
    {
      "type": "Feature",
      "id": "SITE-002",
      "properties": {"site_id": "SITE-002", "requested_capacity_gbps": 20},
      "geometry": {"type": "Point", "coordinates": [-3.5910, 37.1810]}
    },
    {
      "type": "Feature",
      "id": "SITE-003",
      "properties": {"site_id": "SITE-003", "requested_capacity_gbps": 10},
      "geometry": {"type": "Point", "coordinates": [-3.6140, 37.1865]}
    },
    {
      "type": "Feature",
      "id": "SITE-004",
      "properties": {"site_id": "SITE-004", "requested_capacity_gbps": 25},
      "geometry": {"type": "Point", "coordinates": [-3.5685, 37.1760]}
    },
    {
      "type": "Feature",
      "id": "SITE-005",
      "properties": {"site_id": "SITE-005", "requested_capacity_gbps": 10},
      "geometry": {"type": "Point", "coordinates": [-3.5620, 37.1885]}
    },
    {
      "type": "Feature",
      "id": "SITE-006",
      "properties": {"site_id": "SITE-006", "requested_capacity_gbps": 5},
      "geometry": {"type": "Point", "coordinates": [-3.6400, 37.1600]}
    }
  ]
}
